{
  "type": "FeatureCollection",
  "features": [
    {
      "type": "Feature",
      "properties": {
        "norad_id": 33376,
        "name": "GALAXY 19 (G-19)",
        "group": "intelsat",
        "lat": -0.0069190292087090615,
        "lon": -175.40408464612585,
        "alt_km": 35783.39096351535,
        "timestamp": "2025-12-04T13:52:00.115643+00:00",
        "meta_object_name": "GALAXY 19 (G-19)",
        "meta_object_id": "2008-045A",
        "meta_epoch": "2025-12-04T06:24:58.187232",
        "meta_mean_motion": 1.00270783,
        "meta_eccentricity": 0.00033778,
        "meta_inclination": 0.0149,
        "meta_ra_of_asc_node": 16.2013,
        "meta_arg_of_pericenter": 246.4858,
        "meta_mean_anomaly": 169.9049,
        "meta_ephemeris_type": 0,
        "meta_classification_type": "U",
        "meta_norad_cat_id": 33376,
        "meta_element_set_no": 999,
        "meta_rev_at_epoch": 6294,
        "meta_bstar": 0,
        "meta_mean_motion_dot": -1.23e-06,
        "meta_mean_motion_ddot": 0,
        "tle_line1": "1 33376U 08045A   25338.26734013 -.00000123  00000+0  00000+0 0  9991",
        "tle_line2": "2 33376   0.0149  16.2013 0003377 246.4858 169.9049  1.00270783 62945"
      },
      "geometry": {
        "type": "Point",
        "coordinates": [
          -175.40408464612585,
          -0.0069190292087090615
        ]
      }
    },
    {
      "type": "Feature",
      "properties": {
        "norad_id": 35493,
        "name": "FM-5",
        "group": "intelsat",
        "lat": -0.03950013490137003,
        "lon": -164.50921626089146,
        "alt_km": 35782.72606045389,
        "timestamp": "2025-12-04T13:52:00.115654+00:00",
        "meta_object_name": "FM-5",
        "meta_object_id": "2009-034A",
        "meta_epoch": "2025-12-04T06:28:05.388384",
        "meta_mean_motion": 1.00269426,
        "meta_eccentricity": 0.00011086,
        "meta_inclination": 0.02,
        "meta_ra_of_asc_node": 287.2113,
        "meta_arg_of_pericenter": 238.7,
        "meta_mean_anomaly": 278.3151,
        "meta_ephemeris_type": 0,
        "meta_classification_type": "U",
        "meta_norad_cat_id": 35493,
        "meta_element_set_no": 999,
        "meta_rev_at_epoch": 4469,
        "meta_bstar": 0,
        "meta_mean_motion_dot": -1.84e-06,
        "meta_mean_motion_ddot": 0,
        "tle_line1": "1 35493U 09034A   25338.26950681 -.00000184  00000+0  00000+0 0  9990",
        "tle_line2": "2 35493   0.0200 287.2113 0001108 238.7000 278.3151  1.00269426 44692"
      },
      "geometry": {
        "type": "Point",
        "coordinates": [
          -164.50921626089146,
          -0.03950013490137003
        ]
      }
    },
    {
      "type": "Feature",
      "properties": {
        "norad_id": 36097,
        "name": "INTELSAT 14 (IS-14)",
        "group": "intelsat",
        "lat": -0.038545694610180675,
        "lon": -123.37628783662667,
        "alt_km": 35775.60558194373,
        "timestamp": "2025-12-04T13:52:00.115666+00:00",
        "meta_object_name": "INTELSAT 14 (IS-14)",
        "meta_object_id": "2009-064A",
        "meta_epoch": "2025-12-04T06:39:49.264992",
        "meta_mean_motion": 1.00271071,
        "meta_eccentricity": 0.00026882,
        "meta_inclination": 0.0137,
        "meta_ra_of_asc_node": 310.0555,
        "meta_arg_of_pericenter": 306.4876,
        "meta_mean_anomaly": 231.772,
        "meta_ephemeris_type": 0,
        "meta_classification_type": "U",
        "meta_norad_cat_id": 36097,
        "meta_element_set_no": 999,
        "meta_rev_at_epoch": 5865,
        "meta_bstar": 0,
        "meta_mean_motion_dot": -2.58e-06,
        "meta_mean_motion_ddot": 0,
        "tle_line1": "1 36097U 09064A   25338.27765353 -.00000258  00000+0  00000+0 0  9997",
        "tle_line2": "2 36097   0.0137 310.0555 0002688 306.4876 231.7720  1.00271071 58650"
      },
      "geometry": {
        "type": "Point",
        "coordinates": [
          -123.37628783662667,
          -0.038545694610180675
        ]
      }
    },
    {
      "type": "Feature",
      "properties": {
        "norad_id": 36106,
        "name": "INTELSAT 15 (IS-15)",
        "group": "intelsat",
        "lat": 0.02319146082948743,
        "lon": 6.813506995309105,
        "alt_km": 35790.45492479385,
        "timestamp": "2025-12-04T13:52:00.115678+00:00",
        "meta_object_name": "INTELSAT 15 (IS-15)",
        "meta_object_id": "2009-067A",
        "meta_epoch": "2025-12-04T03:10:38.713728",
        "meta_mean_motion": 1.0027022,
        "meta_eccentricity": 0.00024584,
        "meta_inclination": 0.0139,
        "meta_ra_of_asc_node": 336.3645,
        "meta_arg_of_pericenter": 278.4254,
        "meta_mean_anomaly": 311.2428,
        "meta_ephemeris_type": 0,
        "meta_classification_type": "U",
        "meta_norad_cat_id": 36106,
        "meta_element_set_no": 999,
        "meta_rev_at_epoch": 3927,
        "meta_bstar": 0,
        "meta_mean_motion_dot": -1.69e-06,
        "meta_mean_motion_ddot": 0,
        "tle_line1": "1 36106U 09067A   25338.13239252 -.00000169  00000+0  00000+0 0  9991",
        "tle_line2": "2 36106   0.0139 336.3645 0002458 278.4254 311.2428  1.00270220 39278"
      },
      "geometry": {
        "type": "Point",
        "coordinates": [
          6.813506995309105,
          0.02319146082948743
        ]
      }
    },
    {
      "type": "Feature",
      "properties": {
        "norad_id": 36131,
        "name": "DIRECTV 12",
        "group": "intelsat",
        "lat": 0.0018697265847512662,
        "lon": 178.91194906806737,
        "alt_km": 35785.963342748495,
        "timestamp": "2025-12-04T13:52:00.115689+00:00",
        "meta_object_name": "DIRECTV 12",
        "meta_object_id": "2009-075A",
        "meta_epoch": "2025-12-04T06:23:20.842944",
        "meta_mean_motion": 1.00270945,
        "meta_eccentricity": 8.61e-06,
        "meta_inclination": 0.0116,
        "meta_ra_of_asc_node": 87.7232,
        "meta_arg_of_pericenter": 96.3466,
        "meta_mean_anomaly": 242.3934,
        "meta_ephemeris_type": 0,
        "meta_classification_type": "U",
        "meta_norad_cat_id": 36131,
        "meta_element_set_no": 999,
        "meta_rev_at_epoch": 4459,
        "meta_bstar": 0,
        "meta_mean_motion_dot": -8.8e-07,
        "meta_mean_motion_ddot": 0,
        "tle_line1": "1 36131U 09075A   25338.26621346 -.00000088  00000+0  00000+0 0  9991",
        "tle_line2": "2 36131   0.0116  87.7232 0000086  96.3466 242.3934  1.00270945 44598"
      },
      "geometry": {
        "type": "Point",
        "coordinates": [
          178.91194906806737,
          0.0018697265847512662
        ]
      }
    },
    {
      "type": "Feature",
      "properties": {
        "norad_id": 36397,
        "name": "INTELSAT 16 (IS-16)",
        "group": "intelsat",
        "lat": -0.032612244616295534,
        "lon": -154.59917162606177,
        "alt_km": 35780.54914770117,
        "timestamp": "2025-12-04T13:52:00.115701+00:00",
        "meta_object_name": "INTELSAT 16 (IS-16)",
        "meta_object_id": "2010-006A",
        "meta_epoch": "2025-12-04T06:30:57.612960",
        "meta_mean_motion": 1.00269649,
        "meta_eccentricity": 0.00024234,
        "meta_inclination": 0.0101,
        "meta_ra_of_asc_node": 321.3035,
        "meta_arg_of_pericenter": 297.2807,
        "meta_mean_anomaly": 196.3001,
        "meta_ephemeris_type": 0,
        "meta_classification_type": "U",
        "meta_norad_cat_id": 36397,
        "meta_element_set_no": 999,
        "meta_rev_at_epoch": 5770,
        "meta_bstar": 0,
        "meta_mean_motion_dot": -2.29e-06,
        "meta_mean_motion_ddot": 0,
        "tle_line1": "1 36397U 10006A   25338.27150015 -.00000229  00000+0  00000+0 0  9999",
        "tle_line2": "2 36397   0.0101 321.3035 0002423 297.2807 196.3001  1.00269649 57701"
      },
      "geometry": {
        "type": "Point",
        "coordinates": [
          -154.59917162606177,
          -0.032612244616295534
        ]
      }
    },
    {
      "type": "Feature",
      "properties": {
        "norad_id": 37185,
        "name": "XM-5",
        "group": "intelsat",
        "lat": -0.06671798640772596,
        "lon": 166.4352947807664,
        "alt_km": 35781.47651460783,
        "timestamp": "2025-12-04T13:52:00.115713+00:00",
        "meta_object_name": "XM-5",
        "meta_object_id": "2010-053A",
        "meta_epoch": "2025-12-04T04:37:07.552992",
        "meta_mean_motion": 1.00269497,
        "meta_eccentricity": 0.00012779,
        "meta_inclination": 0.06,
        "meta_ra_of_asc_node": 273.4214,
        "meta_arg_of_pericenter": 241.3568,
        "meta_mean_anomaly": 232.5796,
        "meta_ephemeris_type": 0,
        "meta_classification_type": "U",
        "meta_norad_cat_id": 37185,
        "meta_element_set_no": 999,
        "meta_rev_at_epoch": 5552,
        "meta_bstar": 0,
        "meta_mean_motion_dot": -7e-08,
        "meta_mean_motion_ddot": 0,
        "tle_line1": "1 37185U 10053A   25338.19244853 -.00000007  00000+0  00000+0 0  9996",
        "tle_line2": "2 37185   0.0600 273.4214 0001277 241.3568 232.5796  1.00269497 55520"
      },
      "geometry": {
        "type": "Point",
        "coordinates": [
          166.4352947807664,
          -0.06671798640772596
        ]
      }
    }
  ]
}